start=new Date('2021-11-13T00:00:00.000Z').valueOf();
sats=[{"OBJECT_NAME":"STARLINK-2012","PERIOD":"95.591","GP_ID":"189646344","LAUNCH_DATE":"2021-02-16","SITE":"AFETR","BSTAR":"-0.00135030000000","INCLINATION":"53.0547","SEMIMAJOR_AXIS":"6925.294","ELEMENT_SET_NO":"999","OBJECT_TYPE":"PAYLOAD","EPHEMERIS_TYPE":"0","EPOCH":"2021-11-12T20:00:01.000224","ECCENTRICITY":"0.00020240","RCS_SIZE":"LARGE","MEAN_MOTION_DDOT":"0.0000000000000","PERIAPSIS":"545.757","DECAY_DATE":null,"CLASSIFICATION_TYPE":"U","ARG_OF_PERICENTER":"57.0027","OBJECT_ID":"2021-012R","TLE_LINE1":"1 47635U 21012R   21316.83334491 -.00020348  00000-0 -13503-2 0  9992","NORAD_CAT_ID":"47635","MEAN_ANOMALY":"251.9159","FILE":"3213639","MEAN_ELEMENT_THEORY":"SGP4","APOAPSIS":"548.560","RA_OF_ASC_NODE":"219.8753","REF_FRAME":"TEME","TIME_SYSTEM":"UTC","CENTER_NAME":"EARTH","TLE_LINE2":"2 47635  53.0547 219.8753 0002024  57.0027 251.9159 15.06417862  3639","MEAN_MOTION":"15.06417862","MEAN_MOTION_DOT":"-0.00020348","COUNTRY_CODE":"US","REV_AT_EPOCH":"363"},{"REF_FRAME":"TEME","RA_OF_ASC_NODE":"295.6460","APOAPSIS":"551.671","MEAN_ELEMENT_THEORY":"SGP4","REV_AT_EPOCH":"4241","MEAN_MOTION_DOT":"0.00000148","COUNTRY_CODE":"US","CENTER_NAME":"EARTH","TLE_LINE2":"2 47636  53.0543 295.6460 0006428  25.8374 334.2935 15.06398054 42410","MEAN_MOTION":"15.06398054","TIME_SYSTEM":"UTC","CLASSIFICATION_TYPE":"U","DECAY_DATE":null,"FILE":"3213639","MEAN_ANOMALY":"334.2935","NORAD_CAT_ID":"47636","ARG_OF_PERICENTER":"25.8374","OBJECT_ID":"2021-012S","TLE_LINE1":"1 47636U 21012S   21316.66173014  .00000148  00000-0  28995-4 0  9993","OBJECT_TYPE":"PAYLOAD","ELEMENT_SET_NO":"999","INCLINATION":"53.0543","SEMIMAJOR_AXIS":"6925.355","PERIAPSIS":"542.768","RCS_SIZE":"LARGE","MEAN_MOTION_DDOT":"0.0000000000000","ECCENTRICITY":"0.00064280","EPHEMERIS_TYPE":"0","EPOCH":"2021-11-12T15:52:53.484096","OBJECT_NAME":"STARLINK-2013","BSTAR":"0.00002899500000","SITE":"AFETR","LAUNCH_DATE":"2021-02-16","GP_ID":"189645612","PERIOD":"95.592"},{"SITE":"AFETR","GP_ID":"189594476","LAUNCH_DATE":"2021-02-16","PERIOD":"95.599","BSTAR":"0.00146110000000","OBJECT_NAME":"STARLINK-2014","ECCENTRICITY":"0.00024970","EPOCH":"2021-11-12T10:23:50.885376","EPHEMERIS_TYPE":"0","PERIAPSIS":"545.816","MEAN_MOTION_DDOT":"0.0000000000000","RCS_SIZE":"LARGE","INCLINATION":"53.0556","SEMIMAJOR_AXIS":"6925.680","ELEMENT_SET_NO":"999","OBJECT_TYPE":"PAYLOAD","TLE_LINE1":"1 47637U 21012T   21316.43322784  .00021485  00000-0  14611-2 0  9994","OBJECT_ID":"2021-012T","ARG_OF_PERICENTER":"51.2966","FILE":"3213417","MEAN_ANOMALY":"308.8246","NORAD_CAT_ID":"47637","CLASSIFICATION_TYPE":"U","DECAY_DATE":null,"TLE_LINE2":"2 47637  53.0556 296.6784 0002497  51.2966 308.8246 15.06291781 42395","MEAN_MOTION":"15.06291781","CENTER_NAME":"EARTH","TIME_SYSTEM":"UTC","REV_AT_EPOCH":"4239","COUNTRY_CODE":"US","MEAN_MOTION_DOT":"0.00021485","MEAN_ELEMENT_THEORY":"SGP4","REF_FRAME":"TEME","RA_OF_ASC_NODE":"296.6784","APOAPSIS":"549.275"},{"TIME_SYSTEM":"UTC","CENTER_NAME":"EARTH","MEAN_MOTION":"15.05568636","TLE_LINE2":"2 47638  53.0540 219.6601 0002240  53.3190 306.8004 15.05568636 43486","MEAN_MOTION_DOT":"-0.00000783","COUNTRY_CODE":"US","REV_AT_EPOCH":"4348","MEAN_ELEMENT_THEORY":"SGP4","APOAPSIS":"551.315","REF_FRAME":"TEME","RA_OF_ASC_NODE":"219.6601","OBJECT_ID":"2021-012U","ARG_OF_PERICENTER":"53.3190","TLE_LINE1":"1 47638U 21012U   21316.89148944 -.00000783  00000-0 -34597-4 0  9996","NORAD_CAT_ID":"47638","MEAN_ANOMALY":"306.8004","FILE":"3213639","DECAY_DATE":null,"CLASSIFICATION_TYPE":"U","EPHEMERIS_TYPE":"0","EPOCH":"2021-11-12T21:23:44.687616","ECCENTRICITY":"0.00022400","RCS_SIZE":"LARGE","MEAN_MOTION_DDOT":"0.0000000000000","PERIAPSIS":"548.211","SEMIMAJOR_AXIS":"6927.898","INCLINATION":"53.0540","OBJECT_TYPE":"PAYLOAD","ELEMENT_SET_NO":"999","LAUNCH_DATE":"2021-02-16","GP_ID":"189646600","PERIOD":"95.645","SITE":"AFETR","BSTAR":"-0.00003459700000","OBJECT_NAME":"STARLINK-2015"},{"CLASSIFICATION_TYPE":"U","DECAY_DATE":null,"TLE_LINE1":"1 47639U 21012V   21316.67647282  .00000543  00000-0  55364-4 0  9999","OBJECT_ID":"2021-012V","ARG_OF_PERICENTER":"63.8492","FILE":"3213639","NORAD_CAT_ID":"47639","MEAN_ANOMALY":"296.2649","MEAN_ELEMENT_THEORY":"SGP4","RA_OF_ASC_NODE":"295.5774","REF_FRAME":"TEME","APOAPSIS":"548.238","MEAN_MOTION":"15.06400229","TLE_LINE2":"2 47639  53.0547 295.5774 0001480  63.8492 296.2649 15.06400229 42406","CENTER_NAME":"EARTH","TIME_SYSTEM":"UTC","REV_AT_EPOCH":"4240","COUNTRY_CODE":"US","MEAN_MOTION_DOT":"0.00000543","OBJECT_NAME":"STARLINK-2016","SITE":"AFETR","PERIOD":"95.592","GP_ID":"189646845","LAUNCH_DATE":"2021-02-16","BSTAR":"0.00005536400000","SEMIMAJOR_AXIS":"6925.348","INCLINATION":"53.0547","ELEMENT_SET_NO":"999","OBJECT_TYPE":"PAYLOAD","ECCENTRICITY":"0.00014800","EPOCH":"2021-11-12T16:14:07.251648","EPHEMERIS_TYPE":"0","PERIAPSIS":"546.188","MEAN_MOTION_DDOT":"0.0000000000000","RCS_SIZE":"LARGE"},{"NORAD_CAT_ID":"47640","MEAN_ANOMALY":"289.4866","FILE":"3213639","TLE_LINE1":"1 47640U 21012W   21316.73729072  .00000520  00000-0  53773-4 0  9993","ARG_OF_PERICENTER":"70.6294","OBJECT_ID":"2021-012W","DECAY_DATE":null,"CLASSIFICATION_TYPE":"U","COUNTRY_CODE":"US","MEAN_MOTION_DOT":"0.00000520","REV_AT_EPOCH":"4215","TIME_SYSTEM":"UTC","TLE_LINE2":"2 47640  53.0537 315.3284 0001578  70.6294 289.4866 15.06408366 42155","MEAN_MOTION":"15.06408366","CENTER_NAME":"EARTH","APOAPSIS":"548.281","REF_FRAME":"TEME","RA_OF_ASC_NODE":"315.3284","MEAN_ELEMENT_THEORY":"SGP4","BSTAR":"0.00005377300000","PERIOD":"95.592","GP_ID":"189645112","LAUNCH_DATE":"2021-02-16","SITE":"AFETR","OBJECT_NAME":"STARLINK-2018","MEAN_MOTION_DDOT":"0.0000000000000","RCS_SIZE":"LARGE","PERIAPSIS":"546.095","EPOCH":"2021-11-12T17:41:41.918208","EPHEMERIS_TYPE":"0","ECCENTRICITY":"0.00015780","OBJECT_TYPE":"PAYLOAD","ELEMENT_SET_NO":"999","INCLINATION":"53.0537","SEMIMAJOR_AXIS":"6925.323"},{"APOAPSIS":"548.825","RA_OF_ASC_NODE":"219.5023","REF_FRAME":"TEME","MEAN_ELEMENT_THEORY":"SGP4","MEAN_MOTION_DOT":"-0.00025125","COUNTRY_CODE":"US","REV_AT_EPOCH":"364","TIME_SYSTEM":"UTC","CENTER_NAME":"EARTH","TLE_LINE2":"2 47641  53.0546 219.5023 0002345  54.8072 141.1518 15.06404230  3648","MEAN_MOTION":"15.06404230","DECAY_DATE":null,"CLASSIFICATION_TYPE":"U","MEAN_ANOMALY":"141.1518","NORAD_CAT_ID":"47641","FILE":"3213639","ARG_OF_PERICENTER":"54.8072","OBJECT_ID":"2021-012X","TLE_LINE1":"1 47641U 21012X   21316.91667824 -.00025125  00000-0 -16735-2 0  9995","ELEMENT_SET_NO":"999","OBJECT_TYPE":"PAYLOAD","SEMIMAJOR_AXIS":"6925.336","INCLINATION":"53.0546","RCS_SIZE":"LARGE","MEAN_MOTION_DDOT":"0.0000000000000","PERIAPSIS":"545.577","EPHEMERIS_TYPE":"0","EPOCH":"2021-11-12T22:00:00.999936","ECCENTRICITY":"0.00023450","OBJECT_NAME":"STARLINK-2019","BSTAR":"-0.00167350000000","LAUNCH_DATE":"2021-02-16","GP_ID":"189645360","PERIOD":"95.592","SITE":"AFETR"},{"TIME_SYSTEM":"UTC","MEAN_MOTION":"15.05582205","TLE_LINE2":"2 47642  53.0553 311.8122 0001527  75.6144 284.5014 15.05582205 42166","CENTER_NAME":"EARTH","COUNTRY_CODE":"US","MEAN_MOTION_DOT":"-0.00001223","REV_AT_EPOCH":"4216","MEAN_ELEMENT_THEORY":"SGP4","APOAPSIS":"550.779","RA_OF_ASC_NODE":"311.8122","REF_FRAME":"TEME","TLE_LINE1":"1 47642U 21012Y   21316.41021787 -.00001223  00000-0 -64782-4 0  9993","ARG_OF_PERICENTER":"75.6144","OBJECT_ID":"2021-012Y","NORAD_CAT_ID":"47642","MEAN_ANOMALY":"284.5014","FILE":"3213417","DECAY_DATE":null,"CLASSIFICATION_TYPE":"U","EPOCH":"2021-11-12T09:50:42.823968","EPHEMERIS_TYPE":"0","ECCENTRICITY":"0.00015270","MEAN_MOTION_DDOT":"0.0000000000000","RCS_SIZE":"LARGE","PERIAPSIS":"548.663","INCLINATION":"53.0553","SEMIMAJOR_AXIS":"6927.856","OBJECT_TYPE":"PAYLOAD","ELEMENT_SET_NO":"999","LAUNCH_DATE":"2021-02-16","GP_ID":"189593256","PERIOD":"95.644","SITE":"AFETR","BSTAR":"-0.00006478200000","OBJECT_NAME":"STARLINK-2020"},{"OBJECT_NAME":"STARLINK-2022","GP_ID":"189646345","PERIOD":"95.593","LAUNCH_DATE":"2021-02-16","SITE":"AFETR","BSTAR":"0.00000417840000","SEMIMAJOR_AXIS":"6925.366","INCLINATION":"53.0537","OBJECT_TYPE":"PAYLOAD","ELEMENT_SET_NO":"999","EPHEMERIS_TYPE":"0","EPOCH":"2021-11-12T22:57:30.462048","ECCENTRICITY":"0.00016390","RCS_SIZE":"LARGE","MEAN_MOTION_DDOT":"0.0000000000000","PERIAPSIS":"546.096","DECAY_DATE":null,"CLASSIFICATION_TYPE":"U","ARG_OF_PERICENTER":"66.9422","OBJECT_ID":"2021-012Z","TLE_LINE1":"1 47643U 21012Z   21316.95660257 -.00000219  00000-0  41784-5 0  9995","NORAD_CAT_ID":"47643","MEAN_ANOMALY":"293.1740","FILE":"3213639","MEAN_ELEMENT_THEORY":"SGP4","APOAPSIS":"548.366","RA_OF_ASC_NODE":"294.3213","REF_FRAME":"TEME","TIME_SYSTEM":"UTC","CENTER_NAME":"EARTH","TLE_LINE2":"2 47643  53.0537 294.3213 0001639  66.9422 293.1740 15.06394237 42463","MEAN_MOTION":"15.06394237","MEAN_MOTION_DOT":"-0.00000219","COUNTRY_CODE":"US","REV_AT_EPOCH":"4246"},{"SITE":"AFETR","GP_ID":"189645613","PERIOD":"95.593","LAUNCH_DATE":"2021-02-16","BSTAR":"0.00005378500000","OBJECT_NAME":"STARLINK-2026","ECCENTRICITY":"0.00014350","EPOCH":"2021-11-12T16:53:56.062176","EPHEMERIS_TYPE":"0","PERIAPSIS":"546.243","MEAN_MOTION_DDOT":"0.0000000000000","RCS_SIZE":"LARGE","INCLINATION":"53.0549","SEMIMAJOR_AXIS":"6925.371","ELEMENT_SET_NO":"999","OBJECT_TYPE":"PAYLOAD","TLE_LINE1":"1 47644U 21012AA  21316.70412109  .00000520  00000-0  53785-4 0  9997","OBJECT_ID":"2021-012AA","ARG_OF_PERICENTER":"69.1891","FILE":"3213639","NORAD_CAT_ID":"47644","MEAN_ANOMALY":"290.9251","CLASSIFICATION_TYPE":"U","DECAY_DATE":null,"TLE_LINE2":"2 47644  53.0549 315.4752 0001435  69.1891 290.9251 15.06392563 42157","MEAN_MOTION":"15.06392563","CENTER_NAME":"EARTH","TIME_SYSTEM":"UTC","REV_AT_EPOCH":"4215","COUNTRY_CODE":"US","MEAN_MOTION_DOT":"0.00000520","MEAN_ELEMENT_THEORY":"SGP4","REF_FRAME":"TEME","RA_OF_ASC_NODE":"315.4752","APOAPSIS":"548.230"}];
